RADUGA 1 [-]            
1 08513U 75123A   22319.47067983  .00000007  00000+0  00000+0 0  9991
2 08513   6.1735 286.5041 0007715 223.1602 139.5872  1.00282669181686
RADUGA 2 [-]            
1 09416U 76092A   22319.47407925 -.00000159  00000+0  00000+0 0  9993
2 09416   6.8375 288.5053 0027015 359.4304  19.6037  1.00292474116211
RADUGA 3 [-]            
1 10159U 77071A   22319.47460223 -.00000164  00000+0  00000+0 0  9993
2 10159   7.4542 291.1270 0009406 241.9963 137.3860  1.00190453163916
RADUGA 4 [-]            
1 10987U 78073A   22319.53884280  .00000121  00000+0  00000+0 0  9997
2 10987   8.0824 294.6732 0008288 356.4045   4.7958  1.00321918106471
RADUGA 5 [-]            
1 11343U 79035A   22319.47390493 -.00000147  00000+0  00000+0 0  9993
2 11343   8.5434 297.4599 0006462 178.0669 191.1907  1.00252444116220
RADUGA 6 [-]            
1 11708U 80016A   22319.47381775 -.00000161  00000+0  00000+0 0  9998
2 11708   8.9068 300.5611 0003209 211.5348 153.7846  1.00343268109038
RADUGA 7 [-]            
1 12003U 80081A   22319.23751395 -.00000190  00000+0  00000+0 0  9994
2 12003   9.0933 302.5300 0010337 265.7056 266.4566  1.00274986110172
RADUGA 8 [-]            
1 12351U 81027A   22319.34036823 -.00000324  00000+0  00000+0 0  9994
2 12351   9.4248 303.1092 0082522 232.0152 132.5367  1.00370540109404
RADUGA 9 [-]            
1 12618U 81069A   22319.47268462 -.00000112  00000+0  00000+0 0  9991
2 12618   9.6485 306.1029 0003659 164.3234 189.3213  1.00356771 34205
RADUGA 10 [-]           
1 12897U 81102A   22319.47468941 -.00000193  00000+0  00000+0 0  9991
2 12897   9.7347 307.0905 0005798 187.0925 176.7137  1.00272938104216
RADUGA 11 [-]           
1 13669U 82113A   22319.47373059 -.00000026  00000+0  00000+0 0  9992
2 13669  11.8006 320.9138 0038583 256.4751  87.7074  0.97707414108737
RADUGA 12 [-]           
1 13974U 83028A   22319.04133574 -.00000061  00000+0  00000+0 0  9995
2 13974  10.8958 316.9195 0001661 121.2442  61.5347  1.00293139156243
RADUGA 13 [-]           
1 14307U 83088A   22319.37671601 -.00000141  00000+0  00000+0 0  9995
2 14307  12.0535 322.4537 0014632  42.8827 138.1780  0.98174642106080
RADUGA 14 [-]           
1 14725U 84016A   22319.47460223 -.00000187  00000+0  00000+0 0  9998
2 14725  11.1092 320.7070 0004843 149.2880 200.0725  1.00257082104966
RADUGA 15 [-]           
1 15057U 84063A   22319.41175632 -.00000346  00000+0  00000+0 0  9997
2 15057  11.2333 321.6946 0005746 165.3127 205.2149  1.00272074127973
RADUGA 16 [-]           
1 15946U 85070A   22319.30488867  .00000117  00000+0  00000+0 0  9993
2 15946  11.7076 326.3802 0002405 176.7722 217.5813  1.00317093109096
RADUGA 17 [-]           
1 16250U 85107A   22319.51461396 -.00000037  00000+0  00000+0 0  9996
2 16250  11.8331 327.7789 0014267 187.6734 333.2148  1.00127607138552
RADUGA 18 [-]           
1 16497U 86007A   22319.38615916 -.00000266  00000+0  00000+0 0  9997
2 16497  12.6469 330.5000 0075795 168.1793 204.3148  0.98815255132928
RADUGA 19 [-]           
1 17046U 86082A   22319.24309250 -.00000177  00000+0  00000+0 0  9998
2 17046  13.0862 334.4482 0013553 154.3590  16.0231  0.98461882130016
RADUGA 20 [-]           
1 17611U 87028A   22319.24387699 -.00000135  00000+0  00000+0 0  9994
2 17611  15.1082 337.9568 0030688 141.6160  29.1025  0.95961918125746
RADUGA 21 [-]           
1 18631U 87100A   22319.27151615  .00000107  00000+0  00000+0 0  9996
2 18631  13.1787 335.2578 0003709 139.7415 250.8824  1.00322794127951
RADUGA 22 [-]           
1 19596U 88095A   22319.47957064 -.00000345  00000+0  00000+0 0  9990
2 19596  13.1734 339.5783 0007813 145.6812 211.5073  1.00186576108513
RADUGA 23 [-]           
1 19928U 89030A   22319.11115939  .00000014  00000+0  00000+0 0  9999
2 19928  13.3282 341.4033 0022183 167.2806   6.0295  1.00359409121719
RADUGA-1 1 [-]          
1 20083U 89048A   22319.37933095 -.00000221  00000+0  00000+0 0  9992
2 20083  14.0894 344.4773 0022643 118.8192  54.2504  0.98710257118346
RADUGA 24 [-]           
1 20367U 89098A   22319.18059525  .00000101  00000+0  00000+0 0  9994
2 20367  13.9097 343.6504 0002344 150.4859  34.8664  1.00236002119836
RADUGA 25 [-]           
1 20499U 90016A   22319.53265875 -.00000169  00000+0  00000+0 0  9993
2 20499  13.6803 344.3144 0005666 151.5606  18.9539  1.00167698119775
RADUGA 26 [-]           
1 21016U 90112A   22319.11455882 -.00000141  00000+0  00000+0 0  9999
2 21016  14.0057 347.5712 0007289  99.4895  86.5018  1.00321803117126
RADUGA-1 2 [-]          
1 21038U 90116A   22319.18111826  .00000080  00000+0  00000+0 0  9992
2 21038  14.0441 347.6417 0008704 107.5004  76.4219  1.00299631 34207
RADUGA 27 [-]           
1 21132U 91014A   22318.74515876  .00000121  00000+0  00000+0 0  9995
2 21132  14.5529 347.1621 0003596 112.6480 246.6763  1.00313052116160
RADUGA 28 [-]           
1 21821U 91087A   22319.11429733 -.00000096  00000+0  00000+0 0  9990
2 21821  14.3308 350.9117 0007768 132.8914  48.1595  1.00182026113183
RADUGA 29 [-]           
1 22557U 93013A   22319.18233855  .00000024  00000+0  00000+0 0  9993
2 22557  14.5516 355.0855 0006905 121.1878  61.9520  1.00379715108548
RADUGA 30 [-]           
1 22836U 93062A   22319.11342567 -.00000069  00000+0  00000+0 0  9991
2 22836  14.5987 357.0641 0000855 357.8971 171.8450  1.00261019 32866
RADUGA-1 3 [-]          
1 22981U 94008A   22319.11630212 -.00000202  00000+0  00000+0 0  9999
2 22981  14.6801 358.2120 0003954 119.5207  65.3096  1.00221276105344
RADUGA 31 [-]           
1 23010U 94012A   22319.11412299 -.00000122  00000+0  00000+0 0  9992
2 23010  14.6503 358.2100 0005733 102.8959  69.7399  1.00340135105217
RADUGA 32 [-]           
1 23448U 94087A   22319.18521500 -.00000079  00000+0  00000+0 0  9993
2 23448  14.6419   0.9274 0005489 199.7742 353.0587  1.00262084119741
RADUGA-1 4 [-]          
1 25642U 99010A   22318.75030149  .00000083  00000+0  00000+0 0  9992
2 25642  15.2500  12.4790 0002455 229.4980 132.2808  1.00335238 86831
RADUGA-1 5 [-]          
1 26477U 00049A   22318.85164142  .00000093  00000+0  00000+0 0  9996
2 26477  13.2147  17.4302 0005058  73.8052 319.2842  1.00311993 81281
RADUGA-1 6 [-]          
1 26936U 01045A   22319.52931498 -.00000173  00000+0  00000+0 0  9994
2 26936  13.4038  23.7689 0016779 166.8452 227.9248  0.97745995 75803
RADUGA-1 7 [-]          
1 28194U 04010A   22318.61929259 -.00000353  00000+0  00000+0 0  9998
2 28194  12.1423  30.5829 0002445 174.1582 184.3335  1.00201076 68276
RADUGA-1M 1 [-]         
1 32373U 07058A   22318.82752962  .00000041  00000+0  00000+0 0  9998
2 32373   7.2278  62.9903 0001267  40.8014 325.8448  0.99392346 55298
RADUGA-1 8 [-]          
1 34264U 09010A   22319.51785985  .00000121  00000+0  00000+0 0  9996
2 34264   9.5225  52.9415 0013523   5.6936  42.6326  0.99821083 50102
RADUGA-1M 2 [+]         
1 36358U 10002A   22319.47460223 -.00000173  00000+0  00000+0 0  9993
2 36358   0.2249 100.9882 0003189 197.7875  11.6834  1.00272928 36954
RADUGA-1M 3 [+]         
1 39375U 13062A   22319.53640219  .00000168  00000+0  00000+0 0  9999
2 39375   2.6148  87.9960 0002037 119.9843  74.7353  1.00273048 32993
